0 SL-14 R/B
1 16263U 85108B   13282.63785957  .00000305  00000-0  35118-4 0  4654
2 16263 082.5018 296.9400 0022023 101.5841 039.2406 14.82132867504851
0 SL-14 R/B
1 16263U 85108B   13283.65022295  .00000292  00000-0  33582-4 0  4665
2 16263 082.5018 295.9914 0022004 098.4600 040.6778 14.82133600505008
0 SL-14 R/B
1 16263U 85108B   13286.13012022  .00000333  00000-0  38667-4 0  4685
2 16263 082.5016 293.6674 0021958 090.8829 312.0410 14.82134900505373
0 SL-14 R/B
1 16263U 85108B   13287.14302353  .00000355  00000-0  41483-4 0  4691
2 16263 082.5015 292.7180 0021932 087.7877 316.3367 14.82135541505521
0 SL-14 R/B
1 16263U 85108B   13288.15600517  .00000493  00000-0  58717-4 0  4709
2 16263 082.5016 291.7685 0021896 084.6714 321.0742 14.82137067505677
0 SL-14 R/B
1 16263U 85108B   13289.17631145  .00000423  00000-0  49938-4 0  4712
2 16263 082.5017 290.8122 0021860 081.5705 004.8615 14.82138154505821
0 SL-14 R/B
1 16263U 85108B   13290.47133424  .00000445  00000-0  52721-4 0  4723
2 16263 082.5019 289.5983 0021813 077.5937 074.4285 14.82139122506017
0 SL-14 R/B
1 16263U 85108B   13291.48611508  .00000434  00000-0  51398-4 0  4737
2 16263 082.5020 288.6470 0021770 074.4403 088.8098 14.82139831506160
0 SL-14 R/B
1 16263U 85108B   13292.48942549  .00000489  00000-0  58222-4 0  4744
2 16263 082.5022 287.7067 0021708 071.3744 041.9436 14.82140309506314
0 SL-14 R/B
1 16263U 85108B   13293.50925869  .00000536  00000-0  64078-4 0  4754
2 16263 082.5023 286.7509 0021672 068.1904 083.3046 14.82141158506463
0 SL-14 R/B
1 16263U 85108B   13294.52106845  .00000522  00000-0  62327-4 0  4763
2 16263 082.5023 285.8027 0021607 065.0447 081.8437 14.82142485506612
0 SL-14 R/B
1 16263U 85108B   13296.12255233  .00000563  00000-0  67531-4 0  4775
2 16263 082.5023 284.3019 0021496 060.0825 346.5971 14.82143982506851
